CYGNUS NG-23            
1 65616U 25208A   26009.79019308  .00009674  00000+0  18216-3 0  9991
2 65616  51.6333   3.6003 0007671   0.0842   0.0147 15.49200529   227
DRAGONFLY               
1 65729U 98067XH  26009.16745561  .00318970  00000+0  12604-2 0  9993
2 65729  51.6223 354.1315 0008411  77.0299 283.1643 15.85337671 17494
1998-067XK              
1 65731U 98067XK  26009.19045127  .00121076  00000+0  88365-3 0  9997
2 65731  51.6286 357.3406 0005025  50.5024 309.6418 15.72364963 17452
RSP-03                  
1 65732U 98067XL  26009.25279666  .00243012  00000+0  13670-2 0  9993
2 65732  51.6258 355.4813 0006136  58.8424 301.3177 15.77948005 17497
GHS-01                  
1 65733U 98067XM  26009.66036762  .00610563  16536-3  15293-2 0  9994
2 65733  51.6243 349.9183 0008924  88.5863 271.6167 15.95058702 17601
YOTSUBA-KULOVER         
1 65941U 98067XN  26009.23179878  .00099004  00000+0  10218-2 0  9992
2 65941  51.6296   1.3752 0003932  77.1453 282.9980 15.63982323 14159
BOTAN                   
1 65942U 98067XP  26009.66509236  .00153604  00000+0  12149-2 0  9997
2 65942  51.6267 357.5104 0004724  74.9009 285.2511 15.70335248 14249
E-KAGAKU-1              
1 65943U 98067XQ  26009.23168389  .00096582  00000+0  99731-3 0  9995
2 65943  51.6307   1.3807 0002476  73.8814 286.2453 15.63985130 14152
HRC MONOBLOCK CAMERA    
1 66052U 98067XR  26009.66802394  .00036015  00000+0  50656-3 0  9993
2 66052  51.6311   2.0371 0001216 338.5087  21.5853 15.56315427 13181
HTV-X1                  
1 66174U 25241A   26009.79019308  .00009674  00000+0  18216-3 0  9998
2 66174  51.6333   3.6003 0007671   0.0842   0.0147 15.49200529   519
SZ-21 MODULE            
1 66515U 25246C   26009.26518544  .00032052  00000+0  32953-3 0  9990
2 66515  41.4746 207.9332 0001420 107.3362 252.7634 15.64195742  8759
SHENZHOU-22             
1 66645U 25272A   26009.56724622  .00017274  00000+0  20795-3 0  9992
2 66645  41.4650 207.6167 0011309 251.9073 108.0534 15.60345928267648
