CCSDS_OMM_VERS = 2.0
CREATION_DATE  = 
ORIGINATOR     = 

OBJECT_NAME    = CYGNUS NG-23
OBJECT_ID      = 2025-208A
CENTER_NAME    = EARTH
REF_FRAME      = TEME
TIME_SYSTEM    = UTC
MEAN_ELEMENT_THEORY = SGP/SGP4

EPOCH          = 2026-01-09T18:57:52.682112
MEAN_MOTION    = 15.49200529
ECCENTRICITY   = .00076717
INCLINATION    = 51.6333
RA_OF_ASC_NODE = 3.6003
ARG_OF_PERICENTER = 0.0842
MEAN_ANOMALY   = 0.0147

EPHEMERIS_TYPE = 0
CLASSIFICATION_TYPE = U
NORAD_CAT_ID   = 65616
ELEMENT_SET_NO = 999
REV_AT_EPOCH   = 22
BSTAR          = .18215898E-3
MEAN_MOTION_DOT = .9674E-4
MEAN_MOTION_DDOT = 0

CCSDS_OMM_VERS = 2.0
CREATION_DATE  = 
ORIGINATOR     = 

OBJECT_NAME    = DRAGONFLY
OBJECT_ID      = 1998-067XH
CENTER_NAME    = EARTH
REF_FRAME      = TEME
TIME_SYSTEM    = UTC
MEAN_ELEMENT_THEORY = SGP/SGP4

EPOCH          = 2026-01-09T04:01:08.164704
MEAN_MOTION    = 15.85337671
ECCENTRICITY   = .00084113
INCLINATION    = 51.6223
RA_OF_ASC_NODE = 354.1315
ARG_OF_PERICENTER = 77.0299
MEAN_ANOMALY   = 283.1643

EPHEMERIS_TYPE = 0
CLASSIFICATION_TYPE = U
NORAD_CAT_ID   = 65729
ELEMENT_SET_NO = 999
REV_AT_EPOCH   = 1749
BSTAR          = .12603861E-2
MEAN_MOTION_DOT = .31897E-2
MEAN_MOTION_DDOT = 0

CCSDS_OMM_VERS = 2.0
CREATION_DATE  = 
ORIGINATOR     = 

OBJECT_NAME    = 1998-067XK
OBJECT_ID      = 1998-067XK
CENTER_NAME    = EARTH
REF_FRAME      = TEME
TIME_SYSTEM    = UTC
MEAN_ELEMENT_THEORY = SGP/SGP4

EPOCH          = 2026-01-09T04:34:14.989728
MEAN_MOTION    = 15.72364963
ECCENTRICITY   = .00050253
INCLINATION    = 51.6286
RA_OF_ASC_NODE = 357.3406
ARG_OF_PERICENTER = 50.5024
MEAN_ANOMALY   = 309.6418

EPHEMERIS_TYPE = 0
CLASSIFICATION_TYPE = U
NORAD_CAT_ID   = 65731
ELEMENT_SET_NO = 999
REV_AT_EPOCH   = 1745
BSTAR          = .88365326E-3
MEAN_MOTION_DOT = .121076E-2
MEAN_MOTION_DDOT = 0

CCSDS_OMM_VERS = 2.0
CREATION_DATE  = 
ORIGINATOR     = 

OBJECT_NAME    = RSP-03
OBJECT_ID      = 1998-067XL
CENTER_NAME    = EARTH
REF_FRAME      = TEME
TIME_SYSTEM    = UTC
MEAN_ELEMENT_THEORY = SGP/SGP4

EPOCH          = 2026-01-09T06:04:01.631424
MEAN_MOTION    = 15.77948005
ECCENTRICITY   = .00061368
INCLINATION    = 51.6258
RA_OF_ASC_NODE = 355.4813
ARG_OF_PERICENTER = 58.8424
MEAN_ANOMALY   = 301.3177

EPHEMERIS_TYPE = 0
CLASSIFICATION_TYPE = U
NORAD_CAT_ID   = 65732
ELEMENT_SET_NO = 999
REV_AT_EPOCH   = 1749
BSTAR          = .13670171E-2
MEAN_MOTION_DOT = .243012E-2
MEAN_MOTION_DDOT = 0

CCSDS_OMM_VERS = 2.0
CREATION_DATE  = 
ORIGINATOR     = 

OBJECT_NAME    = GHS-01
OBJECT_ID      = 1998-067XM
CENTER_NAME    = EARTH
REF_FRAME      = TEME
TIME_SYSTEM    = UTC
MEAN_ELEMENT_THEORY = SGP/SGP4

EPOCH          = 2026-01-09T15:50:55.762368
MEAN_MOTION    = 15.95058702
ECCENTRICITY   = .00089243
INCLINATION    = 51.6243
RA_OF_ASC_NODE = 349.9183
ARG_OF_PERICENTER = 88.5863
MEAN_ANOMALY   = 271.6167

EPHEMERIS_TYPE = 0
CLASSIFICATION_TYPE = U
NORAD_CAT_ID   = 65733
ELEMENT_SET_NO = 999
REV_AT_EPOCH   = 1760
BSTAR          = .15293449E-2
MEAN_MOTION_DOT = .610563E-2
MEAN_MOTION_DDOT = .16535626E-3

CCSDS_OMM_VERS = 2.0
CREATION_DATE  = 
ORIGINATOR     = 

OBJECT_NAME    = YOTSUBA-KULOVER
OBJECT_ID      = 1998-067XN
CENTER_NAME    = EARTH
REF_FRAME      = TEME
TIME_SYSTEM    = UTC
MEAN_ELEMENT_THEORY = SGP/SGP4

EPOCH          = 2026-01-09T05:33:47.414592
MEAN_MOTION    = 15.63982323
ECCENTRICITY   = .00039322
INCLINATION    = 51.6296
RA_OF_ASC_NODE = 1.3752
ARG_OF_PERICENTER = 77.1453
MEAN_ANOMALY   = 282.9980

EPHEMERIS_TYPE = 0
CLASSIFICATION_TYPE = U
NORAD_CAT_ID   = 65941
ELEMENT_SET_NO = 999
REV_AT_EPOCH   = 1415
BSTAR          = .1021793E-2
MEAN_MOTION_DOT = .99004E-3
MEAN_MOTION_DDOT = 0

CCSDS_OMM_VERS = 2.0
CREATION_DATE  = 
ORIGINATOR     = 

OBJECT_NAME    = BOTAN
OBJECT_ID      = 1998-067XP
CENTER_NAME    = EARTH
REF_FRAME      = TEME
TIME_SYSTEM    = UTC
MEAN_ELEMENT_THEORY = SGP/SGP4

EPOCH          = 2026-01-09T15:57:43.979904
MEAN_MOTION    = 15.70335248
ECCENTRICITY   = .0004724
INCLINATION    = 51.6267
RA_OF_ASC_NODE = 357.5104
ARG_OF_PERICENTER = 74.9009
MEAN_ANOMALY   = 285.2511

EPHEMERIS_TYPE = 0
CLASSIFICATION_TYPE = U
NORAD_CAT_ID   = 65942
ELEMENT_SET_NO = 999
REV_AT_EPOCH   = 1424
BSTAR          = .1214933E-2
MEAN_MOTION_DOT = .153604E-2
MEAN_MOTION_DDOT = 0

CCSDS_OMM_VERS = 2.0
CREATION_DATE  = 
ORIGINATOR     = 

OBJECT_NAME    = E-KAGAKU-1
OBJECT_ID      = 1998-067XQ
CENTER_NAME    = EARTH
REF_FRAME      = TEME
TIME_SYSTEM    = UTC
MEAN_ELEMENT_THEORY = SGP/SGP4

EPOCH          = 2026-01-09T05:33:37.488096
MEAN_MOTION    = 15.63985130
ECCENTRICITY   = .00024766
INCLINATION    = 51.6307
RA_OF_ASC_NODE = 1.3807
ARG_OF_PERICENTER = 73.8814
MEAN_ANOMALY   = 286.2453

EPHEMERIS_TYPE = 0
CLASSIFICATION_TYPE = U
NORAD_CAT_ID   = 65943
ELEMENT_SET_NO = 999
REV_AT_EPOCH   = 1415
BSTAR          = .99730698E-3
MEAN_MOTION_DOT = .96582E-3
MEAN_MOTION_DDOT = 0

CCSDS_OMM_VERS = 2.0
CREATION_DATE  = 
ORIGINATOR     = 

OBJECT_NAME    = HRC MONOBLOCK CAMERA
OBJECT_ID      = 1998-067XR
CENTER_NAME    = EARTH
REF_FRAME      = TEME
TIME_SYSTEM    = UTC
MEAN_ELEMENT_THEORY = SGP/SGP4

EPOCH          = 2026-01-09T16:01:57.268416
MEAN_MOTION    = 15.56315427
ECCENTRICITY   = .0001216
INCLINATION    = 51.6311
RA_OF_ASC_NODE = 2.0371
ARG_OF_PERICENTER = 338.5087
MEAN_ANOMALY   = 21.5853

EPHEMERIS_TYPE = 0
CLASSIFICATION_TYPE = U
NORAD_CAT_ID   = 66052
ELEMENT_SET_NO = 999
REV_AT_EPOCH   = 1318
BSTAR          = .50655571E-3
MEAN_MOTION_DOT = .36015E-3
MEAN_MOTION_DDOT = 0

CCSDS_OMM_VERS = 2.0
CREATION_DATE  = 
ORIGINATOR     = 

OBJECT_NAME    = HTV-X1
OBJECT_ID      = 2025-241A
CENTER_NAME    = EARTH
REF_FRAME      = TEME
TIME_SYSTEM    = UTC
MEAN_ELEMENT_THEORY = SGP/SGP4

EPOCH          = 2026-01-09T18:57:52.682112
MEAN_MOTION    = 15.49200529
ECCENTRICITY   = .00076717
INCLINATION    = 51.6333
RA_OF_ASC_NODE = 3.6003
ARG_OF_PERICENTER = 0.0842
MEAN_ANOMALY   = 0.0147

EPHEMERIS_TYPE = 0
CLASSIFICATION_TYPE = U
NORAD_CAT_ID   = 66174
ELEMENT_SET_NO = 999
REV_AT_EPOCH   = 51
BSTAR          = .18215898E-3
MEAN_MOTION_DOT = .9674E-4
MEAN_MOTION_DDOT = 0

CCSDS_OMM_VERS = 2.0
CREATION_DATE  = 
ORIGINATOR     = 

OBJECT_NAME    = SZ-21 MODULE
OBJECT_ID      = 2025-246C
CENTER_NAME    = EARTH
REF_FRAME      = TEME
TIME_SYSTEM    = UTC
MEAN_ELEMENT_THEORY = SGP/SGP4

EPOCH          = 2026-01-09T06:21:52.022016
MEAN_MOTION    = 15.64195742
ECCENTRICITY   = .00014209
INCLINATION    = 41.4746
RA_OF_ASC_NODE = 207.9332
ARG_OF_PERICENTER = 107.3362
MEAN_ANOMALY   = 252.7634

EPHEMERIS_TYPE = 0
CLASSIFICATION_TYPE = U
NORAD_CAT_ID   = 66515
ELEMENT_SET_NO = 999
REV_AT_EPOCH   = 875
BSTAR          = .32953403E-3
MEAN_MOTION_DOT = .32052E-3
MEAN_MOTION_DDOT = 0

CCSDS_OMM_VERS = 2.0
CREATION_DATE  = 
ORIGINATOR     = 

OBJECT_NAME    = SHENZHOU-22
OBJECT_ID      = 2025-272A
CENTER_NAME    = EARTH
REF_FRAME      = TEME
TIME_SYSTEM    = UTC
MEAN_ELEMENT_THEORY = SGP/SGP4

EPOCH          = 2026-01-09T13:36:50.073408
MEAN_MOTION    = 15.60345928
ECCENTRICITY   = .00113093
INCLINATION    = 41.4650
RA_OF_ASC_NODE = 207.6167
ARG_OF_PERICENTER = 251.9073
MEAN_ANOMALY   = 108.0534

EPHEMERIS_TYPE = 0
CLASSIFICATION_TYPE = U
NORAD_CAT_ID   = 66645
ELEMENT_SET_NO = 999
REV_AT_EPOCH   = 26764
BSTAR          = .20794928E-3
MEAN_MOTION_DOT = .17274E-3
MEAN_MOTION_DDOT = 0

